OBJECT_NAME,OBJECT_ID,EPOCH,MEAN_MOTION,ECCENTRICITY,INCLINATION,RA_OF_ASC_NODE,ARG_OF_PERICENTER,MEAN_ANOMALY,EPHEMERIS_TYPE,CLASSIFICATION_TYPE,NORAD_CAT_ID,ELEMENT_SET_NO,REV_AT_EPOCH,BSTAR,MEAN_MOTION_DOT,MEAN_MOTION_DDOT
PERSEUS-M1,2014-033AF,2026-07-07T07:22:24.093984,14.95695464,.00104592,97.9646,132.7706,225.6574,134.3790,0,U,40039,999,65364,.12442973E-3,.1325E-4,0
POLYITAN-1,2014-033AJ,2026-07-07T00:25:55.036704,15.34009336,.00084453,98.0940,216.1644,87.2204,273.0003,0,U,40042,999,65663,.45002715E-3,.14746E-3,0
TIGRISAT,2014-033AK,2026-07-06T22:09:32.658624,14.85232145,.00493576,97.7856,337.4856,11.5693,348.6644,0,U,40043,999,64855,.18431606E-3,.156E-4,0
AEROCUBE 6A,2014-033AM,2026-07-06T17:25:39.674496,14.98288236,.00372986,97.7237,354.4701,310.0222,49.7729,0,U,40045,999,64954,.35157945E-3,.4181E-4,0
AEROCUBE 6B,2014-033AN,2026-07-07T10:38:26.525184,14.99754106,.00378383,97.7216,355.0141,297.6399,62.0985,0,U,40046,999,64979,.25509514E-3,.3136E-4,0
CANX-4,2014-034C,2026-07-06T14:32:57.696576,14.81300885,.00117645,98.3097,63.6301,313.3306,46.6924,0,U,40055,999,64740,.12484478E-3,.917E-5,0
CANX-5,2014-034D,2026-07-07T01:51:15.816096,14.81318663,.001173,98.3099,64.1631,311.9106,48.1105,0,U,40056,999,63828,.10969486E-3,.799E-5,0
UKUBE-1,2014-037F,2026-07-07T11:05:31.290144,15.13873030,.0003346,98.4246,193.8687,101.4516,258.7088,0,U,40074,999,65162,.27440279E-3,.4886E-4,0
BRITE-PL2 (HEWELIUSZ),2014-049B,2026-07-07T06:09:30.308256,14.94668605,.00148831,97.9109,300.4136,47.9370,312.3113,0,U,40119,999,64444,.18559605E-3,.1956E-4,0
AEROCUBE 5C,2015-058B,2026-07-07T00:25:49.958976,14.91542420,.01317925,64.7654,200.8932,55.5592,305.7892,0,U,40965,999,36861,.20598867E-3,.2265E-4,0
AEROCUBE 7,2015-058C,2026-07-06T16:33:34.100928,14.95859784,.01214512,64.7609,183.7222,54.0290,307.2015,0,U,40966,999,36887,.30749004E-3,.3817E-4,0
FOX-1A (AO-85),2015-058D,2026-07-07T12:59:41.834688,14.91059408,.0131774,64.7734,215.7243,48.7119,312.5249,0,U,40967,999,11660,.17268747E-3,.1843E-4,0
SINOD-D 1,2015-058E,2026-07-07T11:13:35.424768,14.96039990,.01204213,64.7735,195.3949,45.1249,315.9566,0,U,40968,999,11969,.25200727E-3,.3101E-4,0
SNAP-3 ALICE,2015-058G,2026-07-07T06:27:49.835520,15.65535543,.00235927,64.7496,34.2483,354.6378,5.4514,0,U,40970,999,12002,.11465612E-2,.118862E-2,0
LMRST-SAT,2015-058H,2026-07-07T12:02:51.375264,14.90675102,.01333274,64.7739,212.2235,50.7368,310.5483,0,U,40971,999,11658,.17035083E-3,.1803E-4,0
SNAP-3 EDDIE,2015-058J,2026-07-06T23:43:03.635328,15.66758291,.00243536,64.7406,25.8038,357.6956,2.4076,0,U,40972,999,12212,.10957059E-2,.119451E-2,0
PROPCUBE 3,2015-058K,2026-07-07T10:05:41.517888,14.94374781,.01251969,64.7669,189.3128,51.9777,309.2559,0,U,40973,999,11782,.23118008E-3,.2731E-4,0
BISONSAT,2015-058L,2026-07-07T05:06:58.153248,15.16775347,.0081316,64.7579,108.8709,39.2188,321.4789,0,U,40974,999,11865,.55568123E-3,.11741E-3,0
SNAP-3 JIMI,2015-058M,2026-07-07T07:00:00.180864,15.02533240,.01072532,64.7638,156.1518,47.3702,313.6396,0,U,40975,999,11724,.38731172E-3,.5666E-4,0
PROPCUBE 1 (FLORA),2015-058N,2026-07-07T03:21:19.815552,14.89304026,.01319042,64.7732,233.3940,53.1708,308.1416,0,U,40976,999,11923,.15981466E-3,.161E-4,0
SINOD-D 3,2015-058P,2026-07-06T09:13:49.807200,14.94130258,.01203993,64.7708,215.8665,50.5430,310.6262,0,U,40977,999,11762,.30148164E-3,.3553E-4,0
RAVAN,2016-067B,2026-07-06T15:54:07.595424,15.56768950,.0001483,97.9849,79.5105,280.9729,79.1358,0,U,41849,999,53072,.65190247E-3,.46734E-3,0
CELTEE 1,2016-067C,2026-07-06T13:32:30.830208,15.19883845,.00020288,98.0649,55.4525,120.7122,239.4312,0,U,41850,999,52882,.22558624E-3,.4765E-4,0
OPTICUBE 04,2016-067D,2026-07-07T03:53:06.263520,15.09748147,.00167143,98.0684,41.4866,53.5555,306.7211,0,U,41851,999,52818,.10003246E-3,.1547E-4,0
AEROCUBE 8D,2016-067E,2026-07-06T14:00:28.691424,15.24686709,.00049295,98.0655,59.2307,77.9453,282.2334,0,U,41852,999,52902,.27194137E-3,.6643E-4,0
AEROCUBE 8C,2016-067F,2026-07-07T01:33:16.500384,15.24945674,.00051099,98.0530,56.9510,10.9574,349.1772,0,U,41853,999,52909,.23555499E-3,.5788E-4,0
CORVUS BC2,2017-042X,2026-07-07T09:19:45.674976,15.06428633,.00139468,97.4091,348.9564,47.7457,312.4951,0,U,42846,999,49010,.18928673E-3,.2737E-4,0
CORVUS BC1,2017-042Y,2026-07-07T12:20:03.691104,15.06595315,.00123992,97.4125,349.9041,26.5103,333.6756,0,U,42847,999,49015,.1553509E-3,.2244E-4,0
MAKERSAT 0,2017-073D,2026-07-06T15:20:19.728672,15.32782580,.01049762,97.4596,70.3150,202.8118,156.8443,0,U,43016,999,46944,.44083452E-3,.16571E-3,0
SIRION PATHFINDER-2,2018-099B,2026-07-06T16:05:59.890848,15.14731584,.00076501,97.4242,236.2659,223.3987,136.6643,0,U,43759,999,41557,.2542707E-3,.465E-4,0
